{"type": "FeatureCollection", "features": [{"type": "Feature", "properties": {"norad_id": 36828, "name": "BEIDOU-2 IGSO-1 (C06)", "group": "beidou", "lat": -34.84239492085619, "lon": 14.83096815815618, "alt_km": 35575.390044463194, "timestamp": "2025-12-04T13:52:00.707676+00:00", "meta": {"OBJECT_NAME": "BEIDOU-2 IGSO-1 (C06)", "OBJECT_ID": "2010-036A", "EPOCH": "2025-12-03T10:50:44.943648", "MEAN_MOTION": 1.00278626, "ECCENTRICITY": 0.00512649, "INCLINATION": 54.2837, "RA_OF_ASC_NODE": 164.7326, "ARG_OF_PERICENTER": 215.7728, "MEAN_ANOMALY": 322.4753, "EPHEMERIS_TYPE": 0, "CLASSIFICATION_TYPE": "U", "NORAD_CAT_ID": 36828, "ELEMENT_SET_NO": 999, "REV_AT_EPOCH": 5613, "BSTAR": 0, "MEAN_MOTION_DOT": -2.4e-07, "MEAN_MOTION_DDOT": 0}, "tle": {"line1": "1 36828U 10036A   25337.45190907 -.00000024  00000+0  00000+0 0  9997", "line2": "2 36828  54.2837 164.7326 0051264 215.7728 322.4753  1.00278626 56130"}}, "geometry": {"type": "Point", "coordinates": [14.83096815815618, -34.84239492085619]}}, {"type": "Feature", "properties": {"norad_id": 37210, "name": "BEIDOU-2 G4 (C04)", "group": "beidou", "lat": 0.6680325128030715, "lon": 81.68081864571108, "alt_km": 35832.426442733326, "timestamp": "2025-12-04T13:52:00.707699+00:00", "meta": {"OBJECT_NAME": "BEIDOU-2 G4 (C04)", "OBJECT_ID": "2010-057A", "EPOCH": "2025-12-04T05:55:37.533216", "MEAN_MOTION": 1.00271298, "ECCENTRICITY": 0.00109363, "INCLINATION": 3.1621, "RA_OF_ASC_NODE": 69.9588, "ARG_OF_PERICENTER": 188.7123, "MEAN_ANOMALY": 63.6293, "EPHEMERIS_TYPE": 0, "CLASSIFICATION_TYPE": "U", "NORAD_CAT_ID": 37210, "ELEMENT_SET_NO": 999, "REV_AT_EPOCH": 5533, "BSTAR": 0, "MEAN_MOTION_DOT": -9.7e-07, "MEAN_MOTION_DDOT": 0}, "tle": {"line1": "1 37210U 10057A   25338.24696219 -.00000097  00000+0  00000+0 0  9991", "line2": "2 37210   3.1621  69.9588 0010936 188.7123  63.6293  1.00271298 55337"}}, "geometry": {"type": "Point", "coordinates": [81.68081864571108, 0.6680325128030715]}}, {"type": "Feature", "properties": {"norad_id": 37256, "name": "BEIDOU-2 IGSO-2 (C07)", "group": "beidou", "lat": 42.66451790495812, "lon": 37.96160791175094, "alt_km": 35818.512856933754, "timestamp": "2025-12-04T13:52:00.707714+00:00", "meta": {"OBJECT_NAME": "BEIDOU-2 IGSO-2 (C07)", "OBJECT_ID": "2010-068A", "EPOCH": "2025-12-03T17:22:36.030432", "MEAN_MOTION": 1.0028871, "ECCENTRICITY": 0.00492335, "INCLINATION": 47.9043, "RA_OF_ASC_NODE": 274.2613, "ARG_OF_PERICENTER": 216.1442, "MEAN_ANOMALY": 310.2369, "EPHEMERIS_TYPE": 0, "CLASSIFICATION_TYPE": "U", "NORAD_CAT_ID": 37256, "ELEMENT_SET_NO": 999, "REV_AT_EPOCH": 5483, "BSTAR": 0, "MEAN_MOTION_DOT": -2.25e-06, "MEAN_MOTION_DDOT": 0}, "tle": {"line1": "1 37256U 10068A   25337.72402813 -.00000225  00000+0  00000+0 0  9993", "line2": "2 37256  47.9043 274.2613 0049233 216.1442 310.2369  1.00288710 54839"}}, "geometry": {"type": "Point", "coordinates": [37.96160791175094, 42.66451790495812]}}, {"type": "Feature", "properties": {"norad_id": 37384, "name": "BEIDOU-2 IGSO-3 (C08)", "group": "beidou", "lat": -11.116669029976965, "lon": 36.07638214238582, "alt_km": 35929.2933768587, "timestamp": "2025-12-04T13:52:00.707727+00:00", "meta": {"OBJECT_NAME": "BEIDOU-2 IGSO-3 (C08)", "OBJECT_ID": "2011-013A", "EPOCH": "2025-12-03T14:52:09.520896", "MEAN_MOTION": 1.00272128, "ECCENTRICITY": 0.00353922, "INCLINATION": 62.1308, "RA_OF_ASC_NODE": 42.005, "ARG_OF_PERICENTER": 186.5359, "MEAN_ANOMALY": 174.9093, "EPHEMERIS_TYPE": 0, "CLASSIFICATION_TYPE": "U", "NORAD_CAT_ID": 37384, "ELEMENT_SET_NO": 999, "REV_AT_EPOCH": 5370, "BSTAR": 0, "MEAN_MOTION_DOT": -1.99e-06, "MEAN_MOTION_DDOT": 0}, "tle": {"line1": "1 37384U 11013A   25337.61955464 -.00000199  00000+0  00000+0 0  9999", "line2": "2 37384  62.1308  42.0050 0035392 186.5359 174.9093  1.00272128 53708"}}, "geometry": {"type": "Point", "coordinates": [36.07638214238582, -11.116669029976965]}}, {"type": "Feature", "properties": {"norad_id": 37763, "name": "BEIDOU-2 IGSO-4 (C09)", "group": "beidou", "lat": -22.216997348076475, "lon": 4.345461120816666, "alt_km": 35204.956347773135, "timestamp": "2025-12-04T13:52:00.707739+00:00", "meta": {"OBJECT_NAME": "BEIDOU-2 IGSO-4 (C09)", "OBJECT_ID": "2011-038A", "EPOCH": "2025-12-01T12:32:09.960864", "MEAN_MOTION": 1.00284074, "ECCENTRICITY": 0.01487808, "INCLINATION": 54.5808, "RA_OF_ASC_NODE": 167.4476, "ARG_OF_PERICENTER": 230.2031, "MEAN_ANOMALY": 315.0387, "EPHEMERIS_TYPE": 0, "CLASSIFICATION_TYPE": "U", "NORAD_CAT_ID": 37763, "ELEMENT_SET_NO": 999, "REV_AT_EPOCH": 5266, "BSTAR": 0, "MEAN_MOTION_DOT": 1.01e-06, "MEAN_MOTION_DDOT": 0}, "tle": {"line1": "1 37763U 11038A   25335.52233751  .00000101  00000+0  00000+0 0  9995", "line2": "2 37763  54.5808 167.4476 0148780 230.2031 315.0387  1.00284074 52664"}}, "geometry": {"type": "Point", "coordinates": [4.345461120816666, -22.216997348076475]}}, {"type": "Feature", "properties": {"norad_id": 37948, "name": "BEIDOU-2 IGSO-5 (C10)", "group": "beidou", "lat": 47.27737488727871, "lon": 17.438483850091455, "alt_km": 36024.68406743989, "timestamp": "2025-12-04T13:52:00.707752+00:00", "meta": {"OBJECT_NAME": "BEIDOU-2 IGSO-5 (C10)", "OBJECT_ID": "2011-073A", "EPOCH": "2025-12-03T19:19:36.726816", "MEAN_MOTION": 1.00292258, "ECCENTRICITY": 0.01106709, "INCLINATION": 48.0381, "RA_OF_ASC_NODE": 273.9687, "ARG_OF_PERICENTER": 222.1681, "MEAN_ANOMALY": 319.0723, "EPHEMERIS_TYPE": 0, "CLASSIFICATION_TYPE": "U", "NORAD_CAT_ID": 37948, "ELEMENT_SET_NO": 999, "REV_AT_EPOCH": 5117, "BSTAR": 0, "MEAN_MOTION_DOT": -1.77e-06, "MEAN_MOTION_DDOT": 0}, "tle": {"line1": "1 37948U 11073A   25337.80528619 -.00000177  00000+0  00000+0 0  9996", "line2": "2 37948  48.0381 273.9687 0110670 222.1681 319.0723  1.00292258 51174"}}, "geometry": {"type": "Point", "coordinates": [17.438483850091455, 47.27737488727871]}}, {"type": "Feature", "properties": {"norad_id": 38091, "name": "BEIDOU-2 G5 (C05)", "group": "beidou", "lat": -3.0825885929213848, "lon": -19.557671872691174, "alt_km": 35748.920479532186, "timestamp": "2025-12-04T13:52:00.707764+00:00", "meta": {"OBJECT_NAME": "BEIDOU-2 G5 (C05)", "OBJECT_ID": "2012-008A", "EPOCH": "2025-12-04T05:26:40.307424", "MEAN_MOTION": 1.00272536, "ECCENTRICITY": 0.00123747, "INCLINATION": 3.0866, "RA_OF_ASC_NODE": 70.7329, "ARG_OF_PERICENTER": 225.6455, "MEAN_ANOMALY": 277.2985, "EPHEMERIS_TYPE": 0, "CLASSIFICATION_TYPE": "U", "NORAD_CAT_ID": 38091, "ELEMENT_SET_NO": 999, "REV_AT_EPOCH": 5041, "BSTAR": 0, "MEAN_MOTION_DOT": 7.1e-07, "MEAN_MOTION_DDOT": 0}, "tle": {"line1": "1 38091U 12008A   25338.22685541  .00000071  00000+0  00000+0 0  9992", "line2": "2 38091   3.0866  70.7329 0012374 225.6455 277.2985  1.00272536 50416"}}, "geometry": {"type": "Point", "coordinates": [-19.557671872691174, -3.0825885929213848]}}, {"type": "Feature", "properties": {"norad_id": 38250, "name": "BEIDOU-2 M3 (C11)", "group": "beidou", "lat": -19.651389623833033, "lon": 145.39288343958233, "alt_km": 21506.797272084903, "timestamp": "2025-12-04T13:52:00.707776+00:00", "meta": {"OBJECT_NAME": "BEIDOU-2 M3 (C11)", "OBJECT_ID": "2012-018A", "EPOCH": "2025-12-01T01:13:35.126400", "MEAN_MOTION": 1.86229725, "ECCENTRICITY": 0.00245382, "INCLINATION": 55.9302, "RA_OF_ASC_NODE": 311.5507, "ARG_OF_PERICENTER": 273.3676, "MEAN_ANOMALY": 86.348, "EPHEMERIS_TYPE": 0, "CLASSIFICATION_TYPE": "U", "NORAD_CAT_ID": 38250, "ELEMENT_SET_NO": 999, "REV_AT_EPOCH": 9225, "BSTAR": 0, "MEAN_MOTION_DOT": -5.3e-07, "MEAN_MOTION_DDOT": 0}, "tle": {"line1": "1 38250U 12018A   25335.05110100 -.00000053  00000+0  00000+0 0  9993", "line2": "2 38250  55.9302 311.5507 0024538 273.3676  86.3480  1.86229725 92251"}}, "geometry": {"type": "Point", "coordinates": [145.39288343958233, -19.651389623833033]}}, {"type": "Feature", "properties": {"norad_id": 38251, "name": "BEIDOU-2 M4 (C12)", "group": "beidou", "lat": -50.92695555824262, "lon": -172.5977215667681, "alt_km": 21494.71795436938, "timestamp": "2025-12-04T13:52:00.707788+00:00", "meta": {"OBJECT_NAME": "BEIDOU-2 M4 (C12)", "OBJECT_ID": "2012-018B", "EPOCH": "2025-11-30T23:35:43.237248", "MEAN_MOTION": 1.86229405, "ECCENTRICITY": 0.00156645, "INCLINATION": 55.8317, "RA_OF_ASC_NODE": 310.7829, "ARG_OF_PERICENTER": 276.4205, "MEAN_ANOMALY": 83.3972, "EPHEMERIS_TYPE": 0, "CLASSIFICATION_TYPE": "U", "NORAD_CAT_ID": 38251, "ELEMENT_SET_NO": 999, "REV_AT_EPOCH": 9225, "BSTAR": 0, "MEAN_MOTION_DOT": -5.3e-07, "MEAN_MOTION_DDOT": 0}, "tle": {"line1": "1 38251U 12018B   25334.98313932 -.00000053  00000+0  00000+0 0  9993", "line2": "2 38251  55.8317 310.7829 0015664 276.4205  83.3972  1.86229405 92255"}}, "geometry": {"type": "Point", "coordinates": [-172.5977215667681, -50.92695555824262]}}, {"type": "Feature", "properties": {"norad_id": 38775, "name": "BEIDOU-2 M6 (C14)", "group": "beidou", "lat": 55.91405388102601, "lon": 148.44699818070472, "alt_km": 21525.609414458017, "timestamp": "2025-12-04T13:52:00.707799+00:00", "meta": {"OBJECT_NAME": "BEIDOU-2 M6 (C14)", "OBJECT_ID": "2012-050B", "EPOCH": "2025-12-02T20:12:21.766176", "MEAN_MOTION": 1.86230699, "ECCENTRICITY": 0.00108906, "INCLINATION": 56.3701, "RA_OF_ASC_NODE": 69.396, "ARG_OF_PERICENTER": 346.3051, "MEAN_ANOMALY": 13.6678, "EPHEMERIS_TYPE": 0, "CLASSIFICATION_TYPE": "U", "NORAD_CAT_ID": 38775, "ELEMENT_SET_NO": 999, "REV_AT_EPOCH": 8965, "BSTAR": 0, "MEAN_MOTION_DOT": -4.8e-07, "MEAN_MOTION_DDOT": 0}, "tle": {"line1": "1 38775U 12050B   25336.84191859 -.00000048  00000+0  00000+0 0  9993", "line2": "2 38775  56.3701  69.3960 0010890 346.3051  13.6678  1.86230699 89650"}}, "geometry": {"type": "Point", "coordinates": [148.44699818070472, 55.91405388102601]}}]}